EUTELSAT 7A             
1 28187U 04008A   25362.27598269  .00000122  00000+0  00000+0 0  9997
2 28187   5.3954  74.0718 0001257 222.7899 120.2731  1.00272596 79638
EUTELSAT 174A           
1 28924U 05052A   25362.07552656  .00000029  00000+0  00000+0 0  9990
2 28924   3.7842  78.6714 0006157 200.0306  19.2576  1.00270499 50618
EUTELSAT HOTBIRD 13B    
1 29270U 06032A   25362.19030241  .00000178  00000+0  00000+0 0  9993
2 29270   1.2188  84.2366 0003388 194.3464 279.9206  1.00269640 45590
EUTELSAT HOTBIRD 13C    
1 33459U 08065A   25362.22327998 -.00000261  00000+0  00000+0 0  9991
2 33459   2.5095  81.2479 0003564 195.0169 210.7669  1.00271649 45636
EUTELSAT 36B            
1 36101U 09065A   25362.19368243  .00000135  00000+0  00000+0 0  9992
2 36101   0.0645  50.3844 0005957 226.3834 300.3547  1.00272622 58991
EUTELSAT KA-SAT 9A      
1 37258U 10069A   25361.25947390  .00000085  00000+0  00000+0 0  9998
2 37258   0.0515 335.3130 0001476 219.6939   3.3831  1.00276483 42288
EUTELSAT 7 WEST A       
1 37816U 11051A   25362.18224236 -.00000038  00000+0  00000+0 0  9999
2 37816   0.0616 357.6984 0005197 236.1533 281.3483  1.00270962 52167
EUTELSAT 16A            
1 37836U 11057A   25362.18683572  .00000126  00000+0  00000+0 0  9996
2 37836   0.0551 357.0468 0005810 282.1270 260.9805  1.00272389  5613
